{
  "norad_id": 40030,
  "name": "DTUSAT-2",
  "history": [
    {
      "epoch": "2026-03-28T11:58:49.171872Z",
      "apogee_km": 530.7543323533027,
      "perigee_km": 518.1194469512493,
      "latitude_deg": -5.7313711867299435e-06,
      "longitude_deg": 74.55756775368735,
      "height_km": 532.3095792084342,
      "semi_major_axis_km": 6902.573889652276,
      "eccentricity": 0.00091523,
      "inclination_deg": 98.0862,
      "raan_deg": 80.1812,
      "arg_perigee_deg": 139.7419,
      "mean_anomaly_deg": 220.449,
      "mean_motion_rev_day": 15.13861574
    },
    {
      "epoch": "2026-03-29T05:25:47.952480Z",
      "apogee_km": 530.7485980093552,
      "perigee_km": 518.0203484127533,
      "latitude_deg": 5.8464594562624355e-05,
      "longitude_deg": 172.86760727871075,
      "height_km": 532.1421698587202,
      "semi_major_axis_km": 6902.5214732110535,
      "eccentricity": 0.000922,
      "inclination_deg": 98.086,
      "raan_deg": 80.9528,
      "arg_perigee_deg": 137.6958,
      "mean_anomaly_deg": 222.4985,
      "mean_motion_rev_day": 15.13878818
    },
    {
      "epoch": "2026-03-30T05:13:28.863552Z",
      "apogee_km": 530.7426667081108,
      "perigee_km": 517.8999527770029,
      "latitude_deg": 1.383929397227293e-05,
      "longitude_deg": 176.02213792537356,
      "height_km": 531.919309307892,
      "semi_major_axis_km": 6902.458309742557,
      "eccentricity": 0.0009303,
      "inclination_deg": 98.0856,
      "raan_deg": 82.005,
      "arg_perigee_deg": 135.0928,
      "mean_anomaly_deg": 225.1056,
      "mean_motion_rev_day": 15.13899598
    },
    {
      "epoch": "2026-03-30T09:59:00.895776Z",
      "apogee_km": 530.7399102365571,
      "perigee_km": 517.8773408622592,
      "latitude_deg": 4.5200179740661456e-05,
      "longitude_deg": 104.65372513420542,
      "height_km": 531.8801095589934,
      "semi_major_axis_km": 6902.445625549408,
      "eccentricity": 0.00093174,
      "inclination_deg": 98.0855,
      "raan_deg": 82.2155,
      "arg_perigee_deg": 134.6728,
      "mean_anomaly_deg": 225.5263,
      "mean_motion_rev_day": 15.13903771
    },
    {
      "epoch": "2026-03-31T17:42:33.206976Z",
      "apogee_km": 530.6520178674855,
      "perigee_km": 517.7929221748354,
      "latitude_deg": -3.689806765796744e-05,
      "longitude_deg": -11.130917375458711,
      "height_km": 531.513339692812,
      "semi_major_axis_km": 6902.35947002116,
      "eccentricity": 0.0009315,
      "inclination_deg": 98.0853,
      "raan_deg": 83.6184,
      "arg_perigee_deg": 131.2803,
      "mean_anomaly_deg": 228.923,
      "mean_motion_rev_day": 15.13932116
    },
    {
      "epoch": "2026-04-01T20:40:32.018880Z",
      "apogee_km": 530.614168411099,
      "perigee_km": 517.6848053638623,
      "latitude_deg": 5.802484665555607e-05,
      "longitude_deg": -55.54074705016848,
      "height_km": 531.1890152776331,
      "semi_major_axis_km": 6902.28648688748,
      "eccentricity": 0.0009366,
      "inclination_deg": 98.0859,
      "raan_deg": 84.8111,
      "arg_perigee_deg": 128.1286,
      "mean_anomaly_deg": 232.079,
      "mean_motion_rev_day": 15.13956128
    },
    {
      "epoch": "2026-04-02T17:17:47.599584Z",
      "apogee_km": 530.6322039359084,
      "perigee_km": 517.5331714126396,
      "latitude_deg": 3.03748840739647e-05,
      "longitude_deg": -4.790336227229246,
      "height_km": 530.938756936428,
      "semi_major_axis_km": 6902.219687674274,
      "eccentricity": 0.0009489,
      "inclination_deg": 98.0863,
      "raan_deg": 85.7233,
      "arg_perigee_deg": 125.5602,
      "mean_anomaly_deg": 234.6514,
      "mean_motion_rev_day": 15.13978106
    },
    {
      "epoch": "2026-04-02T22:03:18.650304Z",
      "apogee_km": 530.5846230943689,
      "perigee_km": 517.508988049417,
      "latitude_deg": -1.16027093174921e-05,
      "longitude_deg": -76.15463795010423,
      "height_km": 530.8448253266806,
      "semi_major_axis_km": 6902.183805571893,
      "eccentricity": 0.00094721,
      "inclination_deg": 98.0865,
      "raan_deg": 85.9338,
      "arg_perigee_deg": 125.011,
      "mean_anomaly_deg": 235.201,
      "mean_motion_rev_day": 15.13989912
    },
    {
      "epoch": "2026-04-03T17:05:22.377984Z",
      "apogee_km": 530.5960936554638,
      "perigee_km": 517.3688718786898,
      "latitude_deg": 4.183565675948899e-05,
      "longitude_deg": -1.6097912478337975,
      "height_km": 530.5778115498013,
      "semi_major_axis_km": 6902.119482767077,
      "eccentricity": 0.0009582,
      "inclination_deg": 98.0869,
      "raan_deg": 86.7759,
      "arg_perigee_deg": 122.4555,
      "mean_anomaly_deg": 237.7603,
      "mean_motion_rev_day": 15.14011076
    },
    {
      "epoch": "2026-04-04T05:46:44.231808Z",
      "apogee_km": 530.591231559607,
      "perigee_km": 517.2771362458589,
      "latitude_deg": -1.6268379269230175e-05,
      "longitude_deg": 168.0894238142675,
      "height_km": 530.4009082694187,
      "semi_major_axis_km": 6902.071183902733,
      "eccentricity": 0.0009645,
      "inclination_deg": 98.087,
      "raan_deg": 87.3373,
      "arg_perigee_deg": 120.9238,
      "mean_anomaly_deg": 239.2941,
      "mean_motion_rev_day": 15.14026968
    },
    {
      "epoch": "2026-04-05T11:54:57.131712Z",
      "apogee_km": 530.5697527265438,
      "perigee_km": 517.1380642991235,
      "latitude_deg": 2.450932566894368e-05,
      "longitude_deg": 76.1314876536625,
      "height_km": 530.0022033284341,
      "semi_major_axis_km": 6901.990908512834,
      "eccentricity": 0.00097303,
      "inclination_deg": 98.0872,
      "raan_deg": 88.6708,
      "arg_perigee_deg": 117.5247,
      "mean_anomaly_deg": 242.6973,
      "mean_motion_rev_day": 15.14053382
    },
    {
      "epoch": "2026-04-05T21:25:57.671904Z",
      "apogee_km": 530.5564605138852,
      "perigee_km": 517.1072839694361,
      "latitude_deg": -8.73712652319368e-05,
      "longitude_deg": -66.59058982097449,
      "height_km": 529.8793273051915,
      "semi_major_axis_km": 6901.96887224166,
      "eccentricity": 0.0009743,
      "inclination_deg": 98.0873,
      "raan_deg": 89.0918,
      "arg_perigee_deg": 116.5237,
      "mean_anomaly_deg": 243.6992,
      "mean_motion_rev_day": 15.14060633
    },
    {
      "epoch": "2026-04-05T23:01:07.746816Z",
      "apogee_km": 530.5445908777147,
      "perigee_km": 517.1114344129037,
      "latitude_deg": -3.60730684245089e-05,
      "longitude_deg": -90.37751611195952,
      "height_km": 529.8514938797509,
      "semi_major_axis_km": 6901.965012645309,
      "eccentricity": 0.00097314,
      "inclination_deg": 98.0871,
      "raan_deg": 89.162,
      "arg_perigee_deg": 116.3296,
      "mean_anomaly_deg": 243.8934,
      "mean_motion_rev_day": 15.14061903
    },
    {
      "epoch": "2026-04-07T11:29:58.321536Z",
      "apogee_km": 530.436630170444,
      "perigee_km": 517.0704289708765,
      "latitude_deg": -1.8558854540694822e-05,
      "longitude_deg": 82.52733971688006,
      "height_km": 529.3507698342538,
      "semi_major_axis_km": 6901.89052957066,
      "eccentricity": 0.0009683,
      "inclination_deg": 98.0869,
      "raan_deg": 90.7758,
      "arg_perigee_deg": 112.4624,
      "mean_anomaly_deg": 247.7632,
      "mean_motion_rev_day": 15.14086412
    },
    {
      "epoch": "2026-04-08T11:17:27.556512Z",
      "apogee_km": 530.3751090706073,
      "perigee_km": 517.0353664303275,
      "latitude_deg": -1.6657438992966775e-05,
      "longitude_deg": 85.73104376498857,
      "height_km": 528.9986317432865,
      "semi_major_axis_km": 6901.842237750467,
      "eccentricity": 0.00096639,
      "inclination_deg": 98.0871,
      "raan_deg": 91.8284,
      "arg_perigee_deg": 109.7154,
      "mean_anomaly_deg": 250.5119,
      "mean_motion_rev_day": 15.14102303
    },
    {
      "epoch": "2026-04-09T12:40:05.852928Z",
      "apogee_km": 530.3738520448996,
      "perigee_km": 516.9415791693855,
      "latitude_deg": -6.856391965110202e-05,
      "longitude_deg": 65.152270664498,
      "height_km": 528.6494456067821,
      "semi_major_axis_km": 6901.794715607142,
      "eccentricity": 0.0009731,
      "inclination_deg": 98.0872,
      "raan_deg": 92.9514,
      "arg_perigee_deg": 106.87,
      "mean_anomaly_deg": 253.3597,
      "mean_motion_rev_day": 15.14117941
    },
    {
      "epoch": "2026-04-10T12:27:33.317568Z",
      "apogee_km": 530.3613468170543,
      "perigee_km": 516.8601478736973,
      "latitude_deg": -7.539355929862536e-05,
      "longitude_deg": 68.36337291033391,
      "height_km": 528.2676243609709,
      "semi_major_axis_km": 6901.7477473453755,
      "eccentricity": 0.0009781,
      "inclination_deg": 98.0872,
      "raan_deg": 94.004,
      "arg_perigee_deg": 103.8393,
      "mean_anomaly_deg": 256.3925,
      "mean_motion_rev_day": 15.14133397
    },
    {
      "epoch": "2026-04-11T17:00:29.187360Z",
      "apogee_km": 530.380816636809,
      "perigee_km": 516.7416805579305,
      "latitude_deg": -5.9499532243809675e-05,
      "longitude_deg": 0.22121789436736033,
      "height_km": 527.8478041678186,
      "semi_major_axis_km": 6901.6982485973695,
      "eccentricity": 0.0009881,
      "inclination_deg": 98.087,
      "raan_deg": 95.2671,
      "arg_perigee_deg": 100.5198,
      "mean_anomaly_deg": 259.7145,
      "mean_motion_rev_day": 15.14149686
    },
    {
      "epoch": "2026-04-13T05:29:12.672960Z",
      "apogee_km": 530.3639524962582,
      "perigee_km": 516.6807226935425,
      "latitude_deg": -1.5934769747780402e-05,
      "longitude_deg": 173.15599204499966,
      "height_km": 527.3196183850482,
      "semi_major_axis_km": 6901.6593375949005,
      "eccentricity": 0.0009913,
      "inclination_deg": 98.0868,
      "raan_deg": 96.8812,
      "arg_perigee_deg": 96.3466,
      "mean_anomaly_deg": 263.8893,
      "mean_motion_rev_day": 15.14162491
    }
  ]
}